[{"OBJECT_NAME":"YAOGAN-40 03C","OBJECT_ID":"2025-199C","EPOCH":"2026-03-10T00:01:55.612704","MEAN_MOTION":14.12427697,"ECCENTRICITY":0.0002548,"INCLINATION":85.9851,"RA_OF_ASC_NODE":88.6173,"ARG_OF_PERICENTER":88.7754,"MEAN_ANOMALY":271.3721,"EPHEMERIS_TYPE":0,"CLASSIFICATION_TYPE":"U","NORAD_CAT_ID":65546,"ELEMENT_SET_NO":999,"REV_AT_EPOCH":2606,"BSTAR":9.861614e-5,"MEAN_MOTION_DOT":2.01e-6,"MEAN_MOTION_DDOT":0},{"OBJECT_NAME":"OBJECT B","OBJECT_ID":"2025-313B","EPOCH":"2026-03-09T22:01:30.454176","MEAN_MOTION":14.73613198,"ECCENTRICITY":0.02934893,"INCLINATION":97.5206,"RA_OF_ASC_NODE":141.38,"ARG_OF_PERICENTER":298.1139,"MEAN_ANOMALY":59.0692,"EPHEMERIS_TYPE":0,"CLASSIFICATION_TYPE":"U","NORAD_CAT_ID":67249,"ELEMENT_SET_NO":999,"REV_AT_EPOCH":1051,"BSTAR":0.00024043091,"MEAN_MOTION_DOT":3.075e-5,"MEAN_MOTION_DDOT":0}]
